     2.100          NAVIGATION                              RINEX VERSION / TYPE
fic2rin                                 09/26/2010 00:09:26 PGM / RUN BY / DATE
                                                            END OF HEADER
13 10  9 25 19 59 44.0  .296521000564D-03 -.102318153949D-11  .000000000000D+00
     .180000000000D+02 -.812812500000D+02  .379765818771D-08 -.286935661901D+01
    -.413320958614D-05  .432538276073D-02  .517070293427D-05  .515370142365D+04
     .590384000000D+06  .447034835815D-07 -.597438716669D+00 -.521540641785D-07
     .991930387962D+00  .297562500000D+03  .180900351317D+01 -.777246661158D-08
    -.387873299337D-09  .100000000000D+01  .160200000000D+04  .000000000000D+00
     .240000000000D+01  .000000000000D+00 -.107102096081D-07  .180000000000D+02
     .584766000000D+06  .400000000000D+01
12 10  9 25 19 59 44.0 -.694803893566D-04  .363797880709D-11  .000000000000D+00
     .100000000000D+02  .352500000000D+02  .466090843126D-08  .964572444737D+00
     .184588134289D-05  .332328642253D-02  .608526170254D-05  .515359516907D+04
     .590384000000D+06  .111758708954D-06  .143505707070D+01  .502914190292D-07
     .971829617062D+00  .272812500000D+03 -.323420473361D+00 -.809283709915D-08
     .526450500205D-09  .100000000000D+01  .160200000000D+04  .000000000000D+00
     .240000000000D+01  .000000000000D+00 -.116415321827D-07  .100000000000D+02
     .585636000000D+06  .400000000000D+01
19 10  9 25 19 59 44.0 -.689257867634D-04 -.318323145621D-11  .000000000000D+00
     .800000000000D+01 -.479062500000D+02  .492056210402D-08  .304324909607D+01
    -.237487256527D-05  .668265402783D-02  .723451375961D-05  .515356861115D+04
     .590384000000D+06 -.113621354103D-06  .255080017125D+01 -.745058059692D-08
     .958207509075D+00  .239312500000D+03 -.589661301417D-01 -.807212195057D-08
    -.402516766439D-09  .100000000000D+01  .160200000000D+04  .000000000000D+00
     .240000000000D+01  .000000000000D+00 -.149011611938D-07  .800000000000D+01
     .588036000000D+06  .400000000000D+01
12 10  9 25 21 59 44.0 -.694543123245D-04  .363797880709D-11  .000000000000D+00
     .110000000000D+02  .387187500000D+02  .450875923649D-08  .201454560260D+01
     .175461173058D-05  .332327501383D-02  .604987144470D-05  .515359677124D+04
     .597584000000D+06  .745058059692D-08  .143499943026D+01  .614672899246D-07
     .971833243635D+00  .267750000000D+03 -.323164872314D+00 -.804354933183D-08
     .460019161645D-09  .100000000000D+01  .160200000000D+04  .000000000000D+00
     .240000000000D+01  .000000000000D+00 -.116415321827D-07  .110000000000D+02
     .590406000000D+06  .400000000000D+01
13 10  9 25 21 59 44.0  .296514015645D-03 -.102318153949D-11  .000000000000D+00
     .190000000000D+02 -.839687500000D+02  .391802034413D-08 -.181910487473D+01
    -.440329313278D-05  .432507682126D-02  .497698783875D-05  .515370236588D+04
     .597584000000D+06  .260770320892D-07 -.597494652805D+00  .156462192535D-06
     .991926559506D+00  .300125000000D+03  .180891039551D+01 -.795140263641D-08
    -.469662420468D-09  .100000000000D+01  .160200000000D+04  .000000000000D+00
     .240000000000D+01  .000000000000D+00 -.107102096081D-07  .190000000000D+02
     .590406000000D+06  .400000000000D+01
19 10  9 25 21 59 44.0 -.689486041665D-04 -.318323145621D-11  .000000000000D+00
     .900000000000D+01 -.480937500000D+02  .490270421731D-08 -.218969153858D+01
    -.262260437012D-05  .668296590447D-02  .754185020924D-05  .515356805611D+04
     .597584000000D+06 -.856816768646D-07  .255074157699D+01 -.132247805595D-06
     .958204416466D+00  .236718750000D+03 -.589623602018D-01 -.814998233662D-08
    -.357872049664D-09  .100000000000D+01  .160200000000D+04  .000000000000D+00
     .240000000000D+01  .000000000000D+00 -.149011611938D-07  .900000000000D+01
     .590406000000D+06  .400000000000D+01
 1 10  9 25 22  0  0.0 -.166172161698D-03 -.386535248253D-11  .000000000000D+00
     .102000000000D+03  .340312500000D+02  .465269380337D-08 -.111407662473D+01
     .194460153580D-05  .449982262217D-02  .606663525105D-05  .515362456512D+04
     .597600000000D+06  .856816768646D-07  .141986144364D+01  .745058059692D-07
     .965735480702D+00  .262718750000D+03  .957749267541D+00 -.816891169653D-08
     .548237121991D-09  .100000000000D+01  .160200000000D+04  .000000000000D+00
     .240000000000D+01  .630000000000D+02 -.190921127796D-07  .102000000000D+03
     .590406000000D+06  .400000000000D+01
 2 10  9 25 22  0  0.0  .291110947728D-03  .272848410532D-11  .000000000000D+00
     .280000000000D+02  .387187500000D+02  .477341311753D-08 -.255864555660D+01
     .198557972908D-05  .970493955538D-02  .117868185043D-04  .515364889908D+04
     .597600000000D+06 -.217929482460D-06 -.278169937084D+01 -.856816768646D-07
     .940041242525D+00  .140906250000D+03  .313430663691D+01 -.797140346952D-08
    -.136434254463D-09  .100000000000D+01  .160200000000D+04  .000000000000D+00
     .240000000000D+01  .000000000000D+00 -.172294676304D-07  .280000000000D+02
     .590406000000D+06  .400000000000D+01
 3 10  9 25 22  0  0.0  .613213051111D-03  .500222085975D-11  .000000000000D+00
     .620000000000D+02 -.487500000000D+02  .565452124779D-08 -.268131189147D+01
    -.279955565929D-05  .136855109595D-01  .528991222382D-05  .515360336113D+04
     .597600000000D+06  .223517417908D-06  .234767147387D+01 -.128522515297D-06
     .927612008181D+00  .257406250000D+03  .103928393583D+01 -.844856620241D-08
    -.195008122871D-09  .100000000000D+01  .160200000000D+04  .000000000000D+00
     .240000000000D+01  .000000000000D+00 -.465661287308D-08  .620000000000D+02
     .590406000000D+06  .400000000000D+01
 4 10  9 25 22  0  0.0  .178643502295D-03  .920863385545D-11  .000000000000D+00
     .840000000000D+02  .371250000000D+02  .495199198463D-08  .459461944926D+00
     .219792127609D-05  .931135925930D-02  .111609697342D-04  .515375815582D+04
     .597600000000D+06 -.316649675369D-07 -.276399919877D+01  .141561031342D-06
     .939159904603D+00  .151750000000D+03  .646895896851D+00 -.823570019283D-08
    -.206080012631D-09  .100000000000D+01  .160200000000D+04  .000000000000D+00
     .240000000000D+01  .000000000000D+00 -.605359673500D-08  .840000000000D+02
     .590406000000D+06  .400000000000D+01
 5 10  9 25 22  0  0.0 -.419188290834D-04 -.557065504836D-11  .000000000000D+00
     .410000000000D+02  .778750000000D+02  .478448500729D-08 -.904514990874D+00
     .406987965107D-05  .196043681353D-02  .421889126301D-05  .515379445457D+04
     .597600000000D+06  .931322574615D-08 -.172115007891D+01 -.186264514923D-08
     .956613357003D+00  .297781250000D+03  .164403264787D+00 -.835713382245D-08
     .153577825704D-09  .100000000000D+01  .160200000000D+04  .000000000000D+00
     .240000000000D+01  .000000000000D+00 -.884756445885D-08  .410000000000D+02
     .590406000000D+06  .400000000000D+01
 6 10  9 25 22  0  0.0  .479540321976D-03 -.148929757415D-10  .000000000000D+00
     .870000000000D+02 -.473437500000D+02  .553380193363D-08 -.499910967116D+00
    -.266171991825D-05  .617745751515D-02  .606290996075D-05  .515364866829D+04
     .597600000000D+06 -.614672899246D-07  .241929383497D+01 -.633299350739D-07
     .934941315533D+00  .249750000000D+03 -.950288973430D+00 -.862393064990D-08
    -.276797244002D-09  .100000000000D+01  .160200000000D+04  .000000000000D+00
     .240000000000D+01  .000000000000D+00 -.512227416039D-08  .870000000000D+02
     .590406000000D+06  .400000000000D+01
 7 10  9 25 22  0  0.0 -.171363353729D-05  .227373675443D-12  .000000000000D+00
     .560000000000D+02 -.439375000000D+02  .382765943738D-08  .205094266355D+01
    -.217929482460D-05  .409360032063D-02  .117365270853D-04  .515369807243D+04
     .597600000000D+06 -.428408384323D-07  .380968281018D+00  .298023223877D-07
     .973018387219D+00  .160062500000D+03  .309851528402D+01 -.763817530352D-08
     .107861635727D-09  .100000000000D+01  .160200000000D+04  .000000000000D+00
     .240000000000D+01  .000000000000D+00 -.102445483208D-07  .560000000000D+02
     .590406000000D+06  .400000000000D+01
 8 10  9 25 22  0  0.0  .677164644003D-05  .113686837722D-12  .000000000000D+00
     .920000000000D+02 -.311562500000D+02  .340085594502D-08  .145781383374D+01
    -.140257179737D-05  .114966206020D-01  .111889094114D-04  .515366314697D+04
     .597600000000D+06 -.689178705215D-07  .451353009030D+00  .178813934326D-06
     .994471785342D+00  .182906250000D+03  .313839072822D+01 -.738709341638D-08
     .692886004340D-10  .100000000000D+01  .160200000000D+04  .000000000000D+00
     .340000000000D+01  .000000000000D+00 -.372529029846D-08  .920000000000D+02
     .590406000000D+06  .400000000000D+01
 9 10  9 25 22  0  0.0  .326824374497D-04  .238742359215D-11  .000000000000D+00
     .710000000000D+02 -.439687500000D+02  .365479509403D-08  .132676414588D+01
    -.251270830631D-05  .170306824148D-01  .112634152174D-04  .515370757484D+04
     .597600000000D+06 -.126659870148D-06  .350701298860D+00 -.398606061935D-06
     .982072237994D+00  .176031250000D+03  .155103036957D+01 -.772246452879D-08
     .145363197818D-09  .100000000000D+01  .160200000000D+04  .000000000000D+00
     .240000000000D+01  .000000000000D+00 -.558793544769D-08  .710000000000D+02
     .590406000000D+06  .400000000000D+01
10 10  9 25 22  0  0.0 -.534211285412D-04 -.113686837722D-11  .000000000000D+00
     .900000000000D+01  .785625000000D+02  .498699344258D-08 -.755553361842D+00
     .407919287682D-05  .935585971456D-02  .391528010368D-05  .515352052498D+04
     .597600000000D+06  .119209289551D-06 -.169606540944D+01  .167638063431D-06
     .951599250637D+00  .298562500000D+03  .664214592552D+00 -.852999816581D-08
     .978612191697D-10  .100000000000D+01  .160200000000D+04  .000000000000D+00
     .240000000000D+01  .000000000000D+00 -.279396772385D-08  .900000000000D+01
     .590406000000D+06  .400000000000D+01
